<osm version="0.6"><node id="1" lat="31.2300" lon="121.4700"/><node id="2" lat="31.2300" lon="121.4800"/><node id="3" lat="31.2400" lon="121.4800"/><node id="4" lat="31.2400" lon="121.4700"/><node id="5" lat="31.2350" lon="121.4750"/><way id="100"><nd ref="1"/><nd ref="2"/><tag k="highway" v="primary"/><tag k="name" v="East Road"/><tag k="maxspeed" v="60"/></way><way id="101"><nd ref="2"/><nd ref="3"/><tag k="highway" v="secondary"/><tag k="oneway" v="yes"/></way><way id="102"><nd ref="3"/><nd ref="4"/><tag k="highway" v="residential"/><tag k="oneway" v="-1"/></way><way id="103"><nd ref="4"/><nd ref="1"/><tag k="highway" v="motorway"/></way><way id="104"><nd ref="1"/><nd ref="5"/><tag k="highway" v="service"/><tag k="motor_vehicle" v="no"/></way><way id="105"><nd ref="5"/><nd ref="2"/><tag k="highway" v="service"/><tag k="access" v="no"/></way></osm>